BEIDOU 3 (C01)          
1 36287U 10001A   20319.23103015 -.00000278  00000-0  00000-0 0  9996
2 36287   1.5832  35.8480 0004283 124.5502 117.0358  1.00267523 39701
BEIDOU 5 (C06)          
1 36828U 10036A   20319.53224936 -.00000038  00000-0  00000-0 0  9998
2 36828  54.1638 181.5882 0100243 234.1149 309.7081  1.00269634 37754
BEIDOU 6 (C04)          
1 37210U 10057A   20319.22865310 -.00000109  00000-0  00000-0 0  9999
2 37210   0.7805  42.2304 0007228 181.1403  72.7958  1.00271373 36817
BEIDOU 7 (C07)          
1 37256U 10068A   20318.58824038 -.00000228  00000-0  00000-0 0  9993
2 37256  51.2352 296.5658 0081382 215.7513 231.5752  1.00263649 36331
BEIDOU 8 (C08)          
1 37384U 11013A   20319.45779912 -.00000221  00000-0  00000-0 0  9996
2 37384  59.4809  60.0775 0052641 202.9528  73.7462  1.00263963 35202
BEIDOU 9 (C09)          
1 37763U 11038A   20319.59942111 -.00000014  00000-0  00000-0 0  9992
2 37763  54.4467 183.9951 0072726 223.8559 317.1876  1.00263212 34188
BEIDOU 10 (C10)         
1 37948U 11073A   20319.41369147 -.00000168  00000-0  00000-0 0  9999
2 37948  51.3289 296.1565 0071015 217.1757 144.3228  1.00262122 32947
BEIDOU 11 (C05)         
1 38091U 12008A   20319.06795654  .00000058  00000-0  00000-0 0  9992
2 38091   1.7932  69.9846 0003385 216.7533 210.2416  1.00277355 32015
BEIDOU 12 (C11)         
1 38250U 12018A   20319.35765299 -.00000081  00000-0  00000-0 0  9991
2 38250  56.7503  12.7198 0024183 241.7948 200.0022  1.86234418 58283
BEIDOU 13 (C12)         
1 38251U 12018B   20319.35910878 -.00000081  00000-0  00000-0 0  9997
2 38251  56.6749  12.0816 0015265 243.2016 244.2881  1.86232686 58287
BEIDOU 15 (C14)         
1 38775U 12050B   20318.86508368  .00000083  00000-0  00000-0 0  9997
2 38775  55.1147 131.2551 0012549 325.8943  27.4448  1.86232383 55643
BEIDOU 16 (C02)         
1 38953U 12059A   20319.52553219 -.00000172  00000-0  00000-0 0  9993
2 38953   1.4553  84.5766 0007880 252.7066 350.0133  1.00269212 29587
BEIDOU 17 (C31)         
1 40549U 15019A   20319.47688159 -.00000163  00000-0  00000-0 0  9992
2 40549  52.8340 319.4747 0040136 194.3704 165.5477  1.00254669 20621
BEIDOU 18 (C57)         
1 40748U 15037A   20318.23427119 -.00000078  00000-0  00000-0 0  9998
2 40748  55.9392  11.3381 0002145 309.9472  53.2672  1.86232863 36093
BEIDOU 19 (C58)         
1 40749U 15037B   20319.58963287 -.00000083  00000-0  00000-0 0  9995
2 40749  55.9442  11.2757 0005200 282.9907  45.9905  1.86232229 36109
BEIDOU 20 (C18)         
1 40938U 15053A   20319.37340771 -.00000167  00000-0  00000-0 0  9990
2 40938  52.3951 282.5165 0047769 192.8056 168.8183  1.00285062 18901
BEIDOU IGSO-6 (C13)     
1 41434U 16021A   20319.52779271 -.00000178  00000-0  00000-0 0  9998
2 41434  57.2546  58.9194 0042680 205.3383  75.0545  1.00270266 17016
BEIDOU-2 G7 (C03)       
1 41586U 16037A   20319.23678483 -.00000351  00000-0  00000-0 0  9997
2 41586   1.8003  68.0459 0008270   0.5889 180.9067  1.00276599 16329
BEIDOU-3 M1 (C19)       
1 43001U 17069A   20319.21180498  .00000078  00000-0  00000-0 0  9994
2 43001  55.2690 131.1651 0007095 291.4375  90.9434  1.86231836 20590
BEIDOU-3 M2 (C20)       
1 43002U 17069B   20319.45638582  .00000075  00000-0  00000-0 0  9990
2 43002  55.2708 131.1921 0006330 323.2312 266.8329  1.86231534 20588
BEIDOU-3 M3 (C27)       
1 43107U 18003A   20319.32243182 -.00000084  00000-0  00000-0 0  9990
2 43107  55.3782  12.4757 0003099  41.9901 264.1365  1.86232671 19348
BEIDOU-3 M4 (C28)       
1 43108U 18003B   20319.33378904 -.00000084  00000-0  00000-0 0  9993
2 43108  55.3730  12.4683 0004537 235.5111 123.4020  1.86232792 19341
BEIDOU-3 M5 (C21)       
1 43207U 18018A   20318.70903602  .00000086  00000-0  00000-0 0  9999
2 43207  55.2295 131.3162 0004755 358.4654   1.5634  1.86231491 18721
BEIDOU-3 M6 (C22)       
1 43208U 18018B   20318.77581232  .00000085  00000-0  00000-0 0  9997
2 43208  55.2290 131.3188 0005349 307.8150  52.1662  1.86231498 18724
BEIDOU-3 M7 (C29)       
1 43245U 18029A   20319.53416855 -.00000083  00000-0  00000-0 0  9992
2 43245  55.3205  10.2712 0001391 230.9849 127.1864  1.86232799 17882
BEIDOU-3 M8 (C30)       
1 43246U 18029B   20318.93180544 -.00000080  00000-0  56131+1 0  9992
2 43246  55.3163  10.3240 0003589 323.3701  36.9526  1.86233126 17874
BEIDOU IGSO-7 (C16)     
1 43539U 18057A   20319.53172594 -.00000064  00000-0  00000-0 0  9997
2 43539  55.0452 180.8954 0030876 213.3297 326.3199  1.00279688  8690
BEIDOU-3 M9 (C23)       
1 43581U 18062A   20319.46115111 -.00000015  00000-0  00000-0 0  9990
2 43581  54.4965 251.9786 0005469 279.3611 285.4854  1.86231935 15625
BEIDOU-3 M10 (C24)      
1 43582U 18062B   20319.32613559 -.00000016  00000-0  00000-0 0  9996
2 43582  54.4963 251.9744 0005949 337.1427 228.2782  1.86232354 15620
BEIDOU-3 M11 (C25)      
1 43602U 18067A   20319.33599420 -.00000014  00000-0  00000-0 0  9993
2 43602  54.5700 250.5396 0007122 348.0477 266.6452  1.86231582 15118
BEIDOU-3 M12 (C26)      
1 43603U 18067B   20318.92605237 -.00000016  00000-0  00000-0 0  9994
2 43603  54.5659 250.5202 0004663 333.9470 276.4029  1.86231474 15121
BEIDOU-3 M13 (C32)      
1 43622U 18072A   20318.99627067  .00000081  00000-0  00000-0 0  9994
2 43622  55.1916 130.8824 0003765 287.8248  40.0451  1.86231836 14638
BEIDOU-3 M14 (C33)      
1 43623U 18072B   20318.71461559  .00000085  00000-0  00000-0 0  9991
2 43623  55.1954 130.8831 0003006 338.0013 251.2633  1.86231864 14635
BEIDOU-3 M15 (C34)      
1 43647U 18078A   20319.21890132 -.00000082  00000-0  10000-3 0  9994
2 43647  55.2113  10.4907 0005731 337.5849 124.9090  1.86232931 14150
BEIDOU-3 M16 (C35)      
1 43648U 18078B   20319.11829185 -.00000082  00000-0  10000-3 0  9994
2 43648  55.2083  10.5023 0003624 340.4160 323.4511  1.86232322 14164
BEIDOU-3 G1 (C59)       
1 43683U 18085A   20318.96242530 -.00000275  00000-0  00000-0 0  9996
2 43683   1.4545 247.7340 0004944 359.9147 292.3904  1.00268508  7591
BEIDOU-3 M17 (C36)      
1 43706U 18093A   20319.19483992 -.00000016  00000-0  00000-0 0  9999
2 43706  54.5780 251.8335 0011071 272.1800 339.0794  1.86231930 13516
BEIDOU-3 M18 (C37)      
1 43707U 18093B   20319.59875497 -.00000014  00000-0  00000-0 0  9997
2 43707  54.5763 251.8082 0009914 293.4109 319.3109  1.86232186 13524
BEIDOU-3 IGSO-1 (C38)   
1 44204U 19023A   20317.43374970 -.00000219  00000-0  00000-0 0  9992
2 44204  55.7088  59.2921 0019615 185.0908  73.3207  1.00248805  5870
BEIDOU-2 G8             
1 44231U 19027A   20319.25047865 -.00000245  00000-0  00000-0 0  9997
2 44231   0.6537 303.9365 0008029 272.6454  71.9926  1.00269778  5611
BEIDOU-3 IGSO-2 (C39)   
1 44337U 19035A   20316.58272589 -.00000059  00000-0  00000-0 0  9992
2 44337  55.0712 176.9672 0016236 184.5814   4.0637  1.00295251  5202
BEIDOU-3 M23 (C45)      
1 44542U 19061A   20319.49534361 -.00000014  00000-0  10000-3 0  9996
2 44542  54.8010 251.8500 0009569 319.4408 177.6526  1.86231657  7783
BEIDOU-3 M24 (C46)      
1 44543U 19061B   20318.63088919 -.00000016  00000-0  16341+2 0  9999
2 44543  54.8001 251.8487 0007014 309.7887 238.3019  1.86232027  7777
BEIDOU-3 IGSO-3         
1 44709U 19073A   20318.99506807 -.00000179  00000-0  00000+0 0  9999
2 44709  58.1762 302.3703 0021197 197.9518  18.7212  1.00286357  3986
BEIDOU-3 M21            
1 44793U 19078A   20319.40118926 -.00000079  00000-0  23070+2 0  9998
2 44793  55.0595  10.5749 0005375 344.1074 195.3155  1.86232738  6642
BEIDOU-3 M22            
1 44794U 19078B   20319.27005023 -.00000083  00000-0  10000-3 0  9993
2 44794  55.0369  10.5855 0003711 333.4231  28.6418  1.86232994  6642
BEIDOU-3 M19            
1 44864U 19090A   20319.47299777  .00000074  00000-0  00000-0 0  9993
2 44864  55.1273 131.1083 0013343 260.5561  72.2388  1.86231946  6227
BEIDOU-3 M20            
1 44865U 19090B   20319.18724498  .00000078  00000-0  00000-0 0  9999
2 44865  55.1305 131.1484 0012103 279.5338 311.6093  1.86231916  6202
BEIDOU-3 G2             
1 45344U 20017A   20319.45295181 -.00000143  00000-0  00000-0 0  9999
2 45344   2.7330 331.2024 0001170 241.8720  84.0377  1.00272435  2796
BEIDOU-3 G3             
1 45807U 20040A   20319.45905833 -.00000354  00000-0  00000-0 0  9995
2 45807   2.7811 298.5763 0008308   3.5268  27.6966  1.00275887  1610
